O3B FM17                
1 44114U 19020C   26065.97517995 -.00000026  00000+0  00000+0 0  9994
2 44114   0.0391 340.4385 0002682   0.4016  19.1448  5.00115475126403
O3B FM18                
1 44115U 19020D   26062.52332968 -.00000028  00000+0  00000+0 0  9990
2 44115   0.0519   0.0145 0002751 341.7220  18.2467  5.00115242126362
SES-17                  
1 49332U 21095A   26066.13878892 -.00000274  00000+0  00000+0 0  9996
2 49332   0.0257  64.7620 0001011 290.7779 152.1602  1.00269936 16837
SES-22                  
1 52933U 22071A   26066.15183859  .00000000  00000+0  00000+0 0  9992
2 52933   0.0173 154.2438 0001042 192.9003  93.3833  1.00269721  6499
SES-20                  
1 53960U 22123A   26066.08933582 -.00000103  00000+0  00000+0 0  9994
2 53960   0.0153 109.4154 0001580 317.9273  26.5008  1.00271853 12500
SES-21                  
1 53961U 22123B   26066.14628090  .00000067  00000+0  00000+0 0  9995
2 53961   0.0262  67.7951 0001043 273.3177 105.4055  1.00270823  6187
O3B MPOWER F1           
1 54755U 22174A   26065.87317552 -.00000026  00000+0  00000+0 0  9996
2 54755   0.0639 350.7946 0005200  11.4672 130.7782  5.00103103 60241
O3B MPOWER F2           
1 54756U 22174B   26062.53384886 -.00000028  00000+0  00000+0 0  9993
2 54756   0.1272 326.2177 0046125  76.0907 318.0389  5.00690325 60150
SES-18                  
1 55970U 23038A   26066.13168223 -.00000103  00000+0  00000+0 0  9991
2 55970   0.0532 271.9090 0002284  40.3300 156.8963  1.00272275 11086
SES-19                  
1 55971U 23038B   26066.14628090  .00000085  00000+0  00000+0 0  9994
2 55971   0.0475 290.4928 0001793  62.2265  89.8852  1.00271098 11057
O3B MPOWER F4           
1 56367U 23059A   26048.24074746 -.00000015  00000+0  00000+0 0  9995
2 56367   0.0593   7.9241 0006460 334.3658  17.6828  5.00119607 52601
O3B MPOWER F5           
1 58346U 23175A   26065.96442118 -.00000026  00000+0  00000+0 0  9995
2 58346   0.0401   3.4674 0004145 347.5673   8.9528  5.00115754 44329
ASTRA 1P (SES-24)       
1 60086U 24115A   26066.01329503  .00000117  00000+0  00000+0 0  9993
2 60086   0.0570 342.0229 0004669 345.2576 221.4198  1.00271811  6175
O3B MPOWER F7           
1 62362U 24244A   26065.93141808 -.00000026  00000+0  00000+0 0  9995
2 62362   0.0700   4.6174 0006133 340.0798  15.2792  5.00115233 21418
O3B MPOWER F8           
1 62363U 24244B   26066.09829072 -.00000026  00000+0  00000+0 0  9990
2 62363   0.0514 316.3916 0006609  22.0190  21.5566  5.00115754 15757
